start=new Date('2022-11-29T00:00:00.000Z').valueOf();
sats=[{"CLASSIFICATION_TYPE":"U","FILE":"3672348","ARG_OF_PERICENTER":"64.2524","MEAN_ELEMENT_THEORY":"SGP4","MEAN_ANOMALY":"295.8676","MEAN_MOTION_DOT":"0.00000217","EPHEMERIS_TYPE":"0","LAUNCH_DATE":"2021-04-07","OBJECT_TYPE":"PAYLOAD","REF_FRAME":"TEME","TLE_LINE2":"2 48146  53.0523 147.2939 0002045  64.2524 295.8676 15.06398100 91536","TLE_LINE1":"1 48146U 21027BG  22332.21652762  .00000217  00000-0  33473-4 0  9992","NORAD_CAT_ID":"48146","INCLINATION":"53.0523","PERIAPSIS":"545.803","REV_AT_EPOCH":"9153","OBJECT_ID":"2021-027BG","BSTAR":"0.00003347300000","SEMIMAJOR_AXIS":"6925.354","OBJECT_NAME":"STARLINK-2489","COUNTRY_CODE":"US","ELEMENT_SET_NO":"999","MEAN_MOTION":"15.06398100","DECAY_DATE":null,"CENTER_NAME":"EARTH","GP_ID":"219003404","MEAN_MOTION_DDOT":"0.0000000000000","ECCENTRICITY":"0.00020450","RA_OF_ASC_NODE":"147.2939","APOAPSIS":"548.636","SITE":"AFETR","EPOCH":"2022-11-28T05:11:47.986368","RCS_SIZE":"LARGE","TIME_SYSTEM":"UTC","PERIOD":"95.592"},{"OBJECT_NAME":"STARLINK-2490","COUNTRY_CODE":"US","ELEMENT_SET_NO":"999","MEAN_MOTION":"15.06397970","DECAY_DATE":null,"GP_ID":"219003278","MEAN_MOTION_DDOT":"0.0000000000000","CENTER_NAME":"EARTH","SITE":"AFETR","EPOCH":"2022-11-28T11:30:38.319552","ECCENTRICITY":"0.00020080","APOAPSIS":"548.610","RA_OF_ASC_NODE":"151.1118","TIME_SYSTEM":"UTC","PERIOD":"95.592","RCS_SIZE":"LARGE","FILE":"3672348","ARG_OF_PERICENTER":"58.0031","CLASSIFICATION_TYPE":"U","MEAN_ELEMENT_THEORY":"SGP4","MEAN_ANOMALY":"302.1153","MEAN_MOTION_DOT":"0.00000944","OBJECT_TYPE":"PAYLOAD","EPHEMERIS_TYPE":"0","LAUNCH_DATE":"2021-04-07","REF_FRAME":"TEME","TLE_LINE2":"2 48147  53.0538 151.1118 0002008  58.0031 302.1153 15.06397970 91502","REV_AT_EPOCH":"9150","PERIAPSIS":"545.829","INCLINATION":"53.0538","TLE_LINE1":"1 48147U 21027BH  22332.47961018  .00000944  00000-0  82251-4 0  9993","NORAD_CAT_ID":"48147","SEMIMAJOR_AXIS":"6925.355","OBJECT_ID":"2021-027BH","BSTAR":"0.00008225100000"},{"DECAY_DATE":null,"ELEMENT_SET_NO":"999","MEAN_MOTION":"15.06399416","COUNTRY_CODE":"US","OBJECT_NAME":"STARLINK-2491","RCS_SIZE":"LARGE","PERIOD":"95.592","TIME_SYSTEM":"UTC","ECCENTRICITY":"0.00015260","RA_OF_ASC_NODE":"147.4264","APOAPSIS":"548.272","SITE":"AFETR","EPOCH":"2022-11-28T04:24:01.297440","CENTER_NAME":"EARTH","GP_ID":"218997572","MEAN_MOTION_DDOT":"0.0000000000000","MEAN_ELEMENT_THEORY":"SGP4","MEAN_ANOMALY":"291.0381","MEAN_MOTION_DOT":"0.00001722","CLASSIFICATION_TYPE":"U","FILE":"3672058","ARG_OF_PERICENTER":"69.0771","OBJECT_ID":"2021-027BJ","BSTAR":"0.00013450000000","SEMIMAJOR_AXIS":"6925.350","TLE_LINE1":"1 48148U 21027BJ  22332.18334835  .00001722  00000-0  13450-3 0  9992","NORAD_CAT_ID":"48148","INCLINATION":"53.0538","PERIAPSIS":"546.159","REV_AT_EPOCH":"9152","TLE_LINE2":"2 48148  53.0538 147.4264 0001526  69.0771 291.0381 15.06399416 91528","REF_FRAME":"TEME","EPHEMERIS_TYPE":"0","LAUNCH_DATE":"2021-04-07","OBJECT_TYPE":"PAYLOAD"},{"EPOCH":"2022-11-27T20:44:55.085280","SITE":"AFETR","APOAPSIS":"548.408","RA_OF_ASC_NODE":"128.8715","ECCENTRICITY":"0.00017310","PERIOD":"95.592","TIME_SYSTEM":"UTC","RCS_SIZE":"LARGE","GP_ID":"218997571","MEAN_MOTION_DDOT":"0.0000000000000","CENTER_NAME":"EARTH","MEAN_MOTION":"15.06401420","ELEMENT_SET_NO":"999","DECAY_DATE":null,"OBJECT_NAME":"STARLINK-2492","COUNTRY_CODE":"US","PERIAPSIS":"546.010","REV_AT_EPOCH":"9175","INCLINATION":"53.0532","NORAD_CAT_ID":"48149","TLE_LINE1":"1 48149U 21027BK  22331.86452645  .00000895  00000-0  78996-4 0  9994","SEMIMAJOR_AXIS":"6925.344","BSTAR":"0.00007899600000","OBJECT_ID":"2021-027BK","OBJECT_TYPE":"PAYLOAD","LAUNCH_DATE":"2021-04-07","EPHEMERIS_TYPE":"0","TLE_LINE2":"2 48149  53.0532 128.8715 0001731  64.8761 295.2407 15.06401420 91756","REF_FRAME":"TEME","ARG_OF_PERICENTER":"64.8761","FILE":"3672058","CLASSIFICATION_TYPE":"U","MEAN_MOTION_DOT":"0.00000895","MEAN_ELEMENT_THEORY":"SGP4","MEAN_ANOMALY":"295.2407"},{"OBJECT_ID":"2021-027BL","BSTAR":"-0.00002565900000","SEMIMAJOR_AXIS":"6925.339","TLE_LINE1":"1 48150U 21027BL  22332.79705967 -.00000664  00000-0 -25659-4 0  9991","NORAD_CAT_ID":"48150","PERIAPSIS":"546.014","INCLINATION":"53.0545","REV_AT_EPOCH":"9190","REF_FRAME":"TEME","TLE_LINE2":"2 48150  53.0545 124.6711 0001718  66.3828 293.7341 15.06403104 91906","EPHEMERIS_TYPE":"0","LAUNCH_DATE":"2021-04-07","OBJECT_TYPE":"PAYLOAD","MEAN_ELEMENT_THEORY":"SGP4","MEAN_ANOMALY":"293.7341","MEAN_MOTION_DOT":"-0.00000664","CLASSIFICATION_TYPE":"U","FILE":"3672665","ARG_OF_PERICENTER":"66.3828","RCS_SIZE":"LARGE","PERIOD":"95.592","TIME_SYSTEM":"UTC","ECCENTRICITY":"0.00017180","RA_OF_ASC_NODE":"124.6711","APOAPSIS":"548.394","SITE":"AFETR","EPOCH":"2022-11-28T19:07:45.955488","CENTER_NAME":"EARTH","GP_ID":"219009933","MEAN_MOTION_DDOT":"0.0000000000000","DECAY_DATE":null,"ELEMENT_SET_NO":"999","MEAN_MOTION":"15.06403104","COUNTRY_CODE":"US","OBJECT_NAME":"STARLINK-2493"},{"SEMIMAJOR_AXIS":"6925.341","OBJECT_ID":"2021-027BM","BSTAR":"0.00015941000000","PERIAPSIS":"545.796","INCLINATION":"53.0551","REV_AT_EPOCH":"9185","TLE_LINE1":"1 48151U 21027BM  22332.46901523  .00002094  00000-0  15941-3 0  9991","NORAD_CAT_ID":"48151","REF_FRAME":"TEME","TLE_LINE2":"2 48151  53.0551 126.1579 0002036  64.8963 295.2237 15.06402370 91859","OBJECT_TYPE":"PAYLOAD","EPHEMERIS_TYPE":"0","LAUNCH_DATE":"2021-04-07","MEAN_ANOMALY":"295.2237","MEAN_ELEMENT_THEORY":"SGP4","MEAN_MOTION_DOT":"0.00002094","FILE":"3672350","ARG_OF_PERICENTER":"64.8963","CLASSIFICATION_TYPE":"U","TIME_SYSTEM":"UTC","PERIOD":"95.592","RCS_SIZE":"MEDIUM","SITE":"AFETR","EPOCH":"2022-11-28T11:15:22.915872","ECCENTRICITY":"0.00020360","RA_OF_ASC_NODE":"126.1579","APOAPSIS":"548.616","MEAN_MOTION_DDOT":"0.0000000000000","GP_ID":"219003317","CENTER_NAME":"EARTH","DECAY_DATE":null,"ELEMENT_SET_NO":"999","MEAN_MOTION":"15.06402370","COUNTRY_CODE":"US","OBJECT_NAME":"STARLINK-2503"},{"ELEMENT_SET_NO":"999","MEAN_MOTION":"15.06387709","DECAY_DATE":null,"OBJECT_NAME":"STARLINK-2567","COUNTRY_CODE":"US","ECCENTRICITY":"0.00016060","APOAPSIS":"548.363","RA_OF_ASC_NODE":"22.1725","SITE":"AFETR","EPOCH":"2022-11-28T05:52:16.445856","RCS_SIZE":"LARGE","TIME_SYSTEM":"UTC","PERIOD":"95.593","CENTER_NAME":"EARTH","MEAN_MOTION_DDOT":"0.0000000000000","GP_ID":"219000152","CLASSIFICATION_TYPE":"U","FILE":"3672217","ARG_OF_PERICENTER":"60.3339","MEAN_ELEMENT_THEORY":"SGP4","MEAN_ANOMALY":"299.7810","MEAN_MOTION_DOT":"-0.00001465","TLE_LINE1":"1 48276U 21036A   22332.24463479 -.00001465  00000-0 -79508-4 0  9991","NORAD_CAT_ID":"48276","PERIAPSIS":"546.139","REV_AT_EPOCH":"8890","INCLINATION":"53.0552","OBJECT_ID":"2021-036A","BSTAR":"-0.00007950800000","SEMIMAJOR_AXIS":"6925.386","EPHEMERIS_TYPE":"0","LAUNCH_DATE":"2021-04-29","OBJECT_TYPE":"PAYLOAD","TLE_LINE2":"2 48276  53.0552  22.1725 0001606  60.3339 299.7810 15.06387709 88902","REF_FRAME":"TEME"},{"CLASSIFICATION_TYPE":"U","ARG_OF_PERICENTER":"79.4852","FILE":"3672280","MEAN_MOTION_DOT":"-0.00000453","MEAN_ANOMALY":"280.6281","MEAN_ELEMENT_THEORY":"SGP4","LAUNCH_DATE":"2021-04-29","EPHEMERIS_TYPE":"0","OBJECT_TYPE":"PAYLOAD","REF_FRAME":"TEME","TLE_LINE2":"2 48277  53.0565 346.8659 0001277  79.4852 280.6281 15.06404414 89404","NORAD_CAT_ID":"48277","TLE_LINE1":"1 48277U 21036B   22332.31235545 -.00000453  00000-0 -11537-4 0  9995","INCLINATION":"53.0565","PERIAPSIS":"546.316","REV_AT_EPOCH":"8940","BSTAR":"-0.00001153700000","OBJECT_ID":"2021-036B","SEMIMAJOR_AXIS":"6925.335","OBJECT_NAME":"STARLINK-2569","COUNTRY_CODE":"US","MEAN_MOTION":"15.06404414","ELEMENT_SET_NO":"999","DECAY_DATE":null,"CENTER_NAME":"EARTH","MEAN_MOTION_DDOT":"0.0000000000000","GP_ID":"219001485","RA_OF_ASC_NODE":"346.8659","APOAPSIS":"548.084","ECCENTRICITY":"0.00012770","EPOCH":"2022-11-28T07:29:47.510880","SITE":"AFETR","RCS_SIZE":"LARGE","TIME_SYSTEM":"UTC","PERIOD":"95.592"},{"EPOCH":"2022-11-28T11:34:37.486848","SITE":"AFETR","APOAPSIS":"548.197","RA_OF_ASC_NODE":"1.1688","ECCENTRICITY":"0.00014770","TIME_SYSTEM":"UTC","PERIOD":"95.591","RCS_SIZE":"LARGE","MEAN_MOTION_DDOT":"0.0000000000000","GP_ID":"219006153","CENTER_NAME":"EARTH","MEAN_MOTION":"15.06412910","ELEMENT_SET_NO":"999","DECAY_DATE":null,"OBJECT_NAME":"STARLINK-2543","COUNTRY_CODE":"US","PERIAPSIS":"546.151","REV_AT_EPOCH":"8921","INCLINATION":"53.0566","NORAD_CAT_ID":"48278","TLE_LINE1":"1 48278U 21036C   22332.48237832 -.00003652  00000-0 -22631-3 0  9995","SEMIMAJOR_AXIS":"6925.309","BSTAR":"-0.00022631000000","OBJECT_ID":"2021-036C","OBJECT_TYPE":"PAYLOAD","LAUNCH_DATE":"2021-04-29","EPHEMERIS_TYPE":"0","REF_FRAME":"TEME","TLE_LINE2":"2 48278  53.0566   1.1688 0001477  73.6027 286.5124 15.06412910 89211","ARG_OF_PERICENTER":"73.6027","FILE":"3672503","CLASSIFICATION_TYPE":"U","MEAN_MOTION_DOT":"-0.00003652","MEAN_ANOMALY":"286.5124","MEAN_ELEMENT_THEORY":"SGP4"},{"NORAD_CAT_ID":"48279","TLE_LINE1":"1 48279U 21036D   22332.47501495 -.00001764  00000-0 -99558-4 0  9999","INCLINATION":"53.0554","PERIAPSIS":"546.060","REV_AT_EPOCH":"8921","BSTAR":"-0.00009955800000","OBJECT_ID":"2021-036D","SEMIMAJOR_AXIS":"6925.370","LAUNCH_DATE":"2021-04-29","EPHEMERIS_TYPE":"0","OBJECT_TYPE":"PAYLOAD","TLE_LINE2":"2 48279  53.0554   1.1245 0001696  57.1821 302.9331 15.06393067 89214","REF_FRAME":"TEME","CLASSIFICATION_TYPE":"U","ARG_OF_PERICENTER":"57.1821","FILE":"3672569","MEAN_MOTION_DOT":"-0.00001764","MEAN_ELEMENT_THEORY":"SGP4","MEAN_ANOMALY":"302.9331","RA_OF_ASC_NODE":"1.1245","APOAPSIS":"548.409","ECCENTRICITY":"0.00016960","EPOCH":"2022-11-28T11:24:01.291680","SITE":"AFETR","RCS_SIZE":"LARGE","TIME_SYSTEM":"UTC","PERIOD":"95.593","CENTER_NAME":"EARTH","GP_ID":"219007790","MEAN_MOTION_DDOT":"0.0000000000000","MEAN_MOTION":"15.06393067","ELEMENT_SET_NO":"999","DECAY_DATE":null,"OBJECT_NAME":"STARLINK-2580","COUNTRY_CODE":"US"}];
